XRISM                   
1 57800U 23137A   23353.56305908  .00006188  00000+0  49257-3 0  9990
2 57800  31.0041  80.2680 0010230 218.3952 141.5956 14.98945354 15549
